{
  "type": "FeatureCollection",
  "features": [
    {
      "type": "Feature",
      "properties": {
        "norad_id": 66795,
        "name": "STARLINK-36047",
        "group": "last-30-days",
        "lat": 24.32307628418732,
        "lon": -88.57823598851178,
        "alt_km": 308.5452493748562,
        "timestamp": "2025-12-14T07:33:18.188127+00:00",
        "meta_object_name": "STARLINK-36047",
        "meta_object_id": "2025-278E",
        "meta_epoch": "2025-12-13T10:14:17.411424",
        "meta_mean_motion": 15.85716251,
        "meta_eccentricity": 0.00027302,
        "meta_inclination": 42.9972,
        "meta_ra_of_asc_node": 247.8787,
        "meta_arg_of_pericenter": 337.2079,
        "meta_mean_anomaly": 22.8673,
        "meta_ephemeris_type": 0,
        "meta_classification_type": "U",
        "meta_norad_cat_id": 66795,
        "meta_element_set_no": 999,
        "meta_rev_at_epoch": 194,
        "meta_bstar": 0.00069096369,
        "meta_mean_motion_dot": 0.00176561,
        "meta_mean_motion_ddot": 0,
        "tle_line1": "1 66795U 25278E   25347.42659041  .00176561  00000+0  69096-3 0  9997",
        "tle_line2": "2 66795  42.9972 247.8787 0002730 337.2079  22.8673 15.85716251  1947"
      },
      "geometry": {
        "type": "Point",
        "coordinates": [
          -88.57823598851178,
          24.32307628418732
        ]
      }
    },
    {
      "type": "Feature",
      "properties": {
        "norad_id": 66796,
        "name": "STARLINK-35964",
        "group": "last-30-days",
        "lat": 36.501083163531966,
        "lon": -65.98459185427014,
        "alt_km": 279.0518475270801,
        "timestamp": "2025-12-14T07:33:18.188141+00:00",
        "meta_object_name": "STARLINK-35964",
        "meta_object_id": "2025-278F",
        "meta_epoch": "2025-12-13T16:17:33.167904",
        "meta_mean_motion": 15.97421512,
        "meta_eccentricity": 0.0004084,
        "meta_inclination": 42.9946,
        "meta_ra_of_asc_node": 245.4141,
        "meta_arg_of_pericenter": 303.5781,
        "meta_mean_anomaly": 56.4707,
        "meta_ephemeris_type": 0,
        "meta_classification_type": "U",
        "meta_norad_cat_id": 66796,
        "meta_element_set_no": 999,
        "meta_rev_at_epoch": 199,
        "meta_bstar": -0.0014296752,
        "meta_mean_motion_dot": -0.00661837,
        "meta_mean_motion_ddot": 0.00015093939,
        "tle_line1": "1 66796U 25278F   25347.67885611 -.00661837  15094-3 -14297-2 0  9991",
        "tle_line2": "2 66796  42.9946 245.4141 0004084 303.5781  56.4707 15.97421512  1999"
      },
      "geometry": {
        "type": "Point",
        "coordinates": [
          -65.98459185427014,
          36.501083163531966
        ]
      }
    },
    {
      "type": "Feature",
      "properties": {
        "norad_id": 66797,
        "name": "STARLINK-36099",
        "group": "last-30-days",
        "lat": 30.119711682027713,
        "lon": -79.11903541185723,
        "alt_km": 305.85259084691097,
        "timestamp": "2025-12-14T07:33:18.188153+00:00",
        "meta_object_name": "STARLINK-36099",
        "meta_object_id": "2025-278G",
        "meta_epoch": "2025-12-13T02:39:20.871936",
        "meta_mean_motion": 15.86593561,
        "meta_eccentricity": 0.00038292,
        "meta_inclination": 42.9983,
        "meta_ra_of_asc_node": 249.8093,
        "meta_arg_of_pericenter": 302.0122,
        "meta_mean_anomaly": 58.0379,
        "meta_ephemeris_type": 0,
        "meta_classification_type": "U",
        "meta_norad_cat_id": 66797,
        "meta_element_set_no": 999,
        "meta_rev_at_epoch": 189,
        "meta_bstar": 0.0008369452,
        "meta_mean_motion_dot": 0.00224629,
        "meta_mean_motion_ddot": 0,
        "tle_line1": "1 66797U 25278G   25347.11065824  .00224629  00000+0  83695-3 0  9995",
        "tle_line2": "2 66797  42.9983 249.8093 0003829 302.0122  58.0379 15.86593561  1898"
      },
      "geometry": {
        "type": "Point",
        "coordinates": [
          -79.11903541185723,
          30.119711682027713
        ]
      }
    },
    {
      "type": "Feature",
      "properties": {
        "norad_id": 66798,
        "name": "STARLINK-36041",
        "group": "last-30-days",
        "lat": 31.518712512444548,
        "lon": -76.47173495502078,
        "alt_km": 304.0767215739661,
        "timestamp": "2025-12-14T07:33:18.188164+00:00",
        "meta_object_name": "STARLINK-36041",
        "meta_object_id": "2025-278H",
        "meta_epoch": "2025-12-13T02:38:50.019360",
        "meta_mean_motion": 15.86626076,
        "meta_eccentricity": 0.00035632,
        "meta_inclination": 42.9978,
        "meta_ra_of_asc_node": 249.8079,
        "meta_arg_of_pericenter": 326.4211,
        "meta_mean_anomaly": 33.6436,
        "meta_ephemeris_type": 0,
        "meta_classification_type": "U",
        "meta_norad_cat_id": 66798,
        "meta_element_set_no": 999,
        "meta_rev_at_epoch": 189,
        "meta_bstar": 0.0011741183,
        "meta_mean_motion_dot": 0.00319266,
        "meta_mean_motion_ddot": 0,
        "tle_line1": "1 66798U 25278H   25347.11030115  .00319266  00000+0  11741-2 0  9995",
        "tle_line2": "2 66798  42.9978 249.8079 0003563 326.4211  33.6436 15.86626076  1892"
      },
      "geometry": {
        "type": "Point",
        "coordinates": [
          -76.47173495502078,
          31.518712512444548
        ]
      }
    },
    {
      "type": "Feature",
      "properties": {
        "norad_id": 66799,
        "name": "STARLINK-36044",
        "group": "last-30-days",
        "lat": 36.03641056590333,
        "lon": -66.31538961029108,
        "alt_km": 283.7251615760815,
        "timestamp": "2025-12-14T07:33:18.188174+00:00",
        "meta_object_name": "STARLINK-36044",
        "meta_object_id": "2025-278J",
        "meta_epoch": "2025-12-13T10:11:22.905024",
        "meta_mean_motion": 15.8780582,
        "meta_eccentricity": 0.00188306,
        "meta_inclination": 42.9962,
        "meta_ra_of_asc_node": 247.8629,
        "meta_arg_of_pericenter": 36.8776,
        "meta_mean_anomaly": 323.3389,
        "meta_ephemeris_type": 0,
        "meta_classification_type": "U",
        "meta_norad_cat_id": 66799,
        "meta_element_set_no": 999,
        "meta_rev_at_epoch": 194,
        "meta_bstar": 0.0053372085,
        "meta_mean_motion_dot": 0.01486317,
        "meta_mean_motion_ddot": 0.0010062213,
        "tle_line1": "1 66799U 25278J   25347.42457066  .01486317  10062-2  53372-2 0  9999",
        "tle_line2": "2 66799  42.9962 247.8629 0018830  36.8776 323.3389 15.87805820  1945"
      },
      "geometry": {
        "type": "Point",
        "coordinates": [
          -66.31538961029108,
          36.03641056590333
        ]
      }
    },
    {
      "type": "Feature",
      "properties": {
        "norad_id": 66800,
        "name": "STARLINK-35996",
        "group": "last-30-days",
        "lat": 30.369788557552624,
        "lon": -78.65435194073659,
        "alt_km": 314.1118169558631,
        "timestamp": "2025-12-14T07:33:18.188184+00:00",
        "meta_object_name": "STARLINK-35996",
        "meta_object_id": "2025-278K",
        "meta_epoch": "2025-12-13T16:13:34.516416",
        "meta_mean_motion": 15.84889579,
        "meta_eccentricity": 0.00032267,
        "meta_inclination": 42.9969,
        "meta_ra_of_asc_node": 246.3055,
        "meta_arg_of_pericenter": 304.3117,
        "meta_mean_anomaly": 55.745,
        "meta_ephemeris_type": 0,
        "meta_classification_type": "U",
        "meta_norad_cat_id": 66800,
        "meta_element_set_no": 999,
        "meta_rev_at_epoch": 198,
        "meta_bstar": -0.0023716892,
        "meta_mean_motion_dot": -0.00539495,
        "meta_mean_motion_ddot": 0,
        "tle_line1": "1 66800U 25278K   25347.67609394 -.00539495  00000+0 -23717-2 0  9997",
        "tle_line2": "2 66800  42.9969 246.3055 0003226 304.3117  55.7450 15.84889579  1986"
      },
      "geometry": {
        "type": "Point",
        "coordinates": [
          -78.65435194073659,
          30.369788557552624
        ]
      }
    },
    {
      "type": "Feature",
      "properties": {
        "norad_id": 66801,
        "name": "STARLINK-36080",
        "group": "last-30-days",
        "lat": 37.465569235818265,
        "lon": -62.32769944358401,
        "alt_km": 310.3579128028159,
        "timestamp": "2025-12-14T07:33:18.188194+00:00",
        "meta_object_name": "STARLINK-36080",
        "meta_object_id": "2025-278L",
        "meta_epoch": "2025-12-13T04:04:48.475200",
        "meta_mean_motion": 15.86249052,
        "meta_eccentricity": 0.00021649,
        "meta_inclination": 42.9972,
        "meta_ra_of_asc_node": 249.3919,
        "meta_arg_of_pericenter": 305.292,
        "meta_mean_anomaly": 54.775,
        "meta_ephemeris_type": 0,
        "meta_classification_type": "U",
        "meta_norad_cat_id": 66801,
        "meta_element_set_no": 999,
        "meta_rev_at_epoch": 190,
        "meta_bstar": -0.0019026268,
        "meta_mean_motion_dot": -0.00466175,
        "meta_mean_motion_ddot": 0,
        "tle_line1": "1 66801U 25278L   25347.17000550 -.00466175  00000+0 -19026-2 0  9994",
        "tle_line2": "2 66801  42.9972 249.3919 0002164 305.2920  54.7750 15.86249052  1907"
      },
      "geometry": {
        "type": "Point",
        "coordinates": [
          -62.32769944358401,
          37.465569235818265
        ]
      }
    }
  ]
}